[{"pk": 99, "model": "tag.Venue", "fields": {"city": "Cambridge", "geolat": 42.36161330581629, "name": "Stata Center (Building 32)", "zip": 2139, "geolong": -71.09048919024656, "tag_playable": true, "state": "MA", "crossstreet": "", "address": "Vassar Street"}}, {"pk": 100, "model": "tag.Venue", "fields": {"city": "Cambridge", "geolat": 42.36942250865895, "name": "Leverett Towers", "zip": 2138, "geolong": -71.11642950418187, "tag_playable": true, "state": "MA", "crossstreet": "", "address": "DeWolf St."}}, {"pk": 101, "model": "tag.Venue", "fields": {"city": "Allston", "geolat": 42.36846437042884, "name": "Dillon Field House", "zip": 2134, "geolong": -71.12585679831696, "tag_playable": true, "state": "MA", "crossstreet": "", "address": "North Harvard St."}}, {"pk": 102, "model": "tag.Venue", "fields": {"city": "Cambridge", "geolat": 42.360200193189705, "name": "Building 12", "zip": 2139, "geolong": -71.09155134522109, "tag_playable": true, "state": "MA", "crossstreet": "", "address": "Vassar Street"}}, {"pk": 103, "model": "tag.Venue", "fields": {"city": "Cambridge", "geolat": 42.36861993264516, "name": "Dunster House", "zip": 2138, "geolong": -71.11619078757954, "tag_playable": true, "state": "MA", "crossstreet": "", "address": "Cowperthwaite St."}}, {"pk": 104, "model": "tag.Venue", "fields": {"city": "Cambridge", "geolat": 42.370847303530866, "name": "Veritas Tutors", "zip": 2138, "geolong": -71.11407720687578, "tag_playable": true, "state": "MA", "crossstreet": "", "address": "1132 Massachusetts Ave"}}, {"pk": 105, "model": "tag.Venue", "fields": {"city": "Cambridge", "geolat": 42.37331535223769, "name": "Boylston Hall", "zip": 2138, "geolong": -71.11729250493241, "tag_playable": true, "state": "MA", "crossstreet": "", "address": "Harvard Yard"}}, {"pk": 106, "model": "tag.Venue", "fields": {"city": "Cambridge", "geolat": 42.35718756087965, "name": "McCormick Hall", "zip": 2139, "geolong": -71.0944052154083, "tag_playable": true, "state": "MA", "crossstreet": "", "address": "Memorial Drive"}}, {"pk": 107, "model": "tag.Venue", "fields": {"city": "Cambridge", "geolat": 42.37019138667904, "name": "Eliot House", "zip": 2138, "geolong": -71.1213701331873, "tag_playable": true, "state": "MA", "crossstreet": "", "address": "Dunster St."}}, {"pk": 108, "model": "tag.Venue", "fields": {"city": "Cambridge", "geolat": 42.36034091129953, "name": "East Campus", "zip": 2139, "geolong": -71.08848289790342, "tag_playable": true, "state": "MA", "crossstreet": "", "address": "Ames Street"}}, {"pk": 109, "model": "tag.Venue", "fields": {"city": "Cambridge", "geolat": 42.36044793612994, "name": "Building 16", "zip": 2139, "geolong": -71.0905642921399, "tag_playable": true, "state": "MA", "crossstreet": "", "address": "Vassar Street"}}, {"pk": 110, "model": "tag.Venue", "fields": {"city": "Cambridge", "geolat": 42.37634108130156, "name": "Science Center", "zip": 2138, "geolong": -71.11676276865197, "tag_playable": true, "state": "MA", "crossstreet": "", "address": "Harvard Yard"}}, {"pk": 111, "model": "tag.Venue", "fields": {"city": "Cambridge", "geolat": 42.372571281927726, "name": "Bureau of Study Council", "zip": 2138, "geolong": -71.11742125096512, "tag_playable": true, "state": "MA", "crossstreet": "", "address": "Linden St."}}, {"pk": 112, "model": "tag.Venue", "fields": {"city": "Cambridge", "geolat": 42.37018544178195, "name": "Winthrop House (Gore)", "zip": 2138, "geolong": -71.11872614565087, "tag_playable": true, "state": "MA", "crossstreet": "", "address": "Mill St."}}, {"pk": 113, "model": "tag.Venue", "fields": {"city": "Somerville", "geolat": 42.37655210411936, "name": "Buckingham Palace", "zip": 2143, "geolong": -71.10340603831003, "tag_playable": true, "state": "MA", "crossstreet": "", "address": "12 Buckingham St"}}, {"pk": 114, "model": "tag.Venue", "fields": {"city": "Cambridge", "geolat": 42.35636798079999, "name": "MIT Rugby Field", "zip": 2139, "geolong": -71.10195831619887, "tag_playable": true, "state": "MA", "crossstreet": "", "address": "Vassar Street"}}, {"pk": 115, "model": "tag.Venue", "fields": {"city": "Allston", "geolat": 42.368000654020754, "name": "Gordon Track and Tennis Center", "zip": 2134, "geolong": -71.12768606486512, "tag_playable": true, "state": "MA", "crossstreet": "", "address": "North Harvard St."}}, {"pk": 116, "model": "tag.Venue", "fields": {"city": "Cambridge", "geolat": 42.37323410930381, "name": "Faculty Club", "zip": 2138, "geolong": -71.11418248357964, "tag_playable": true, "state": "MA", "crossstreet": "", "address": "Harvard Yard"}}, {"pk": 117, "model": "tag.Venue", "fields": {"city": "Cambridge", "geolat": 42.36088197940643, "name": "Building 26", "zip": 2139, "geolong": -71.09122143334855, "tag_playable": true, "state": "MA", "crossstreet": "", "address": "Vassar Street"}}, {"pk": 118, "model": "tag.Venue", "fields": {"city": "Cambridge", "geolat": 42.375076910987374, "name": "Lionel", "zip": 2138, "geolong": -71.11835063638878, "tag_playable": true, "state": "MA", "crossstreet": "", "address": "Harvard Yard"}}, {"pk": 119, "model": "tag.Venue", "fields": {"city": "Cambridge", "geolat": 42.35975028951245, "name": "Building 9", "zip": 2139, "geolong": -71.09353349747846, "tag_playable": true, "state": "MA", "crossstreet": "", "address": "Massachusetts Ave."}}, {"pk": 120, "model": "tag.Venue", "fields": {"city": "Cambridge", "geolat": 42.369387334245616, "name": "Weld Boathouse", "zip": 2138, "geolong": -71.12211042287541, "tag_playable": true, "state": "MA", "crossstreet": "", "address": "Memorial Drive"}}, {"pk": 121, "model": "tag.Venue", "fields": {"city": "Cambridge", "geolat": 42.355685154741664, "name": "Delta Psi", "zip": 2139, "geolong": -71.09877185168455, "tag_playable": true, "state": "MA", "crossstreet": "", "address": "Memorial Drive"}}, {"pk": 122, "model": "tag.Venue", "fields": {"city": "Cambridge", "geolat": 42.374452742279075, "name": "Massachusetts Hall", "zip": 2138, "geolong": -71.11823932471466, "tag_playable": true, "state": "MA", "crossstreet": "", "address": "Harvard Yard"}}, {"pk": 123, "model": "tag.Venue", "fields": {"city": "Cambridge", "geolat": 42.366495533802514, "name": "1369 Coffee House", "zip": 2139, "geolong": -71.1053741091747, "tag_playable": true, "state": "MA", "crossstreet": "", "address": "757 Massachusetts Ave"}}, {"pk": 124, "model": "tag.Venue", "fields": {"city": "Cambridge", "geolat": 42.36069369616146, "name": "Building 37", "zip": 2139, "geolong": -71.09323845448682, "tag_playable": true, "state": "MA", "crossstreet": "", "address": "Vassar Street"}}, {"pk": 125, "model": "tag.Venue", "fields": {"city": "Cambridge", "geolat": 42.35629563544663, "name": "Phi Beta Epsilon", "zip": 2139, "geolong": -71.09687821212003, "tag_playable": true, "state": "MA", "crossstreet": "", "address": "Memorial Drive"}}, {"pk": 126, "model": "tag.Venue", "fields": {"city": "Cambridge", "geolat": 42.372180913952164, "name": "The Bee Club", "zip": 2138, "geolong": -71.11951605620575, "tag_playable": true, "state": "MA", "crossstreet": "", "address": "Dunster St."}}, {"pk": 127, "model": "tag.Venue", "fields": {"city": "Cambridge", "geolat": 42.36086612399698, "name": "Building 39", "zip": 2139, "geolong": -71.09273688140104, "tag_playable": true, "state": "MA", "crossstreet": "", "address": "Vassar Street"}}, {"pk": 128, "model": "tag.Venue", "fields": {"city": "Cambridge", "geolat": 42.37517598481516, "name": "Canaday", "zip": 2138, "geolong": -71.11574151756955, "tag_playable": true, "state": "MA", "crossstreet": "", "address": "Harvard Yard"}}, {"pk": 129, "model": "tag.Venue", "fields": {"city": "Cambridge", "geolat": 42.37408418260514, "name": "Matthews", "zip": 2138, "geolong": -71.11805425229264, "tag_playable": true, "state": "MA", "crossstreet": "", "address": "Harvard Yard"}}, {"pk": 130, "model": "tag.Venue", "fields": {"city": "Cambridge", "geolat": 42.3731548478034, "name": "Houghton Library", "zip": 2138, "geolong": -71.11593396606636, "tag_playable": true, "state": "MA", "crossstreet": "", "address": "Harvard Yard"}}, {"pk": 131, "model": "tag.Venue", "fields": {"city": "Cambridge", "geolat": 42.37204170854121, "name": "HSA", "zip": 2138, "geolong": -71.11828425171566, "tag_playable": true, "state": "MA", "crossstreet": "", "address": "Mt Auburn St."}}, {"pk": 132, "model": "tag.Venue", "fields": {"city": "Cambridge", "geolat": 42.374692503056515, "name": "Robinson Hall", "zip": 2138, "geolong": -71.11500055732918, "tag_playable": true, "state": "MA", "crossstreet": "", "address": "Harvard Yard"}}, {"pk": 133, "model": "tag.Venue", "fields": {"city": "Cambridge", "geolat": 42.37567234233841, "name": "Institute for Quantitative Social Science", "zip": 2138, "geolong": -71.11320012452794, "tag_playable": true, "state": "MA", "crossstreet": "", "address": "Cambridge St."}}, {"pk": 134, "model": "tag.Venue", "fields": {"city": "Cambridge", "geolat": 42.373664101199644, "name": "Cafe Gato Rojo", "zip": 2138, "geolong": -71.11835197749329, "tag_playable": true, "state": "MA", "crossstreet": "", "address": "Harvard Yard"}}, {"pk": 135, "model": "tag.Venue", "fields": {"city": "Cambridge", "geolat": 42.359264707039294, "name": "Building 7", "zip": 2139, "geolong": -71.09317408155232, "tag_playable": true, "state": "MA", "crossstreet": "", "address": "Massachusetts Ave."}}, {"pk": 136, "model": "tag.Venue", "fields": {"city": "Cambridge", "geolat": 42.371336759678485, "name": "Hillel", "zip": 2138, "geolong": -71.11731999757481, "tag_playable": true, "state": "MA", "crossstreet": "", "address": "Mt Auburn St."}}, {"pk": 137, "model": "tag.Venue", "fields": {"city": "Cambridge", "geolat": 42.374850031333246, "name": "Harvard Hall", "zip": 2138, "geolong": -71.11814008298111, "tag_playable": true, "state": "MA", "crossstreet": "", "address": "Harvard Yard"}}, {"pk": 138, "model": "tag.Venue", "fields": {"city": "Cambridge", "geolat": 42.3585878582725, "name": "Athletics Center", "zip": 2139, "geolong": -71.09643296542356, "tag_playable": true, "state": "MA", "crossstreet": "", "address": "Vassar Street"}}, {"pk": 139, "model": "tag.Venue", "fields": {"city": "Cambridge", "geolat": 42.37382064129722, "name": "Emerson Hall", "zip": 2138, "geolong": -71.1151829475422, "tag_playable": true, "state": "MA", "crossstreet": "", "address": "Harvard Yard"}}, {"pk": 140, "model": "tag.Venue", "fields": {"city": "Cambridge", "geolat": 42.36110395471788, "name": "Building 34", "zip": 2139, "geolong": -71.09194026552825, "tag_playable": true, "state": "MA", "crossstreet": "", "address": "Vassar Street"}}, {"pk": 141, "model": "tag.Venue", "fields": {"city": "Cambridge", "geolat": 42.38235346776443, "name": "Pforzheimer House", "zip": 2138, "geolong": -71.1249535644312, "tag_playable": true, "state": "MA", "crossstreet": "", "address": "Linnaean St."}}, {"pk": 142, "model": "tag.Venue", "fields": {"city": "Cambridge", "geolat": 42.37251877064076, "name": "The Hasty Pudding", "zip": 2138, "geolong": -71.11794428172303, "tag_playable": true, "state": "MA", "crossstreet": "", "address": "12 Holyoke Street"}}, {"pk": 143, "model": "tag.Venue", "fields": {"city": "Cambridge", "geolat": 42.35618067524761, "name": "Alpha Tau Omega", "zip": 2139, "geolong": -71.09706596675107, "tag_playable": true, "state": "MA", "crossstreet": "", "address": "Memorial Drive"}}, {"pk": 144, "model": "tag.Venue", "fields": {"city": "Cambridge", "geolat": 42.359611552045926, "name": "Gray House", "zip": 2139, "geolong": -71.08696744981, "tag_playable": true, "state": "MA", "crossstreet": "", "address": "Ames Street"}}, {"pk": 145, "model": "tag.Venue", "fields": {"city": "Cambridge", "geolat": 42.36064216591204, "name": "Building 24", "zip": 2139, "geolong": -71.09199122749953, "tag_playable": true, "state": "MA", "crossstreet": "", "address": "Vassar Street"}}, {"pk": 146, "model": "tag.Venue", "fields": {"city": "Cambridge", "geolat": 42.374924336987135, "name": "Memorial Church", "zip": 2138, "geolong": -71.116139155056, "tag_playable": true, "state": "MA", "crossstreet": "", "address": "Harvard Yard"}}, {"pk": 147, "model": "tag.Venue", "fields": {"city": "Cambridge", "geolat": 42.374151553889796, "name": "Strauss", "zip": 2138, "geolong": -71.11858264746857, "tag_playable": true, "state": "MA", "crossstreet": "", "address": "Harvard Yard"}}, {"pk": 148, "model": "tag.Venue", "fields": {"city": "Cambridge", "geolat": 42.3603983876199, "name": "Building 35", "zip": 2139, "geolong": -71.0940082484741, "tag_playable": true, "state": "MA", "crossstreet": "", "address": "Vassar Street"}}, {"pk": 149, "model": "tag.Venue", "fields": {"city": "Cambridge", "geolat": 42.37638863580105, "name": "Littauer", "zip": 2138, "geolong": -71.11822792532635, "tag_playable": true, "state": "MA", "crossstreet": "", "address": "Harvard Yard"}}, {"pk": 150, "model": "tag.Venue", "fields": {"city": "Cambridge", "geolat": 42.37575358211836, "name": "School of Design", "zip": 2138, "geolong": -71.11386799457264, "tag_playable": true, "state": "MA", "crossstreet": "", "address": "Cambridge St."}}, {"pk": 151, "model": "tag.Venue", "fields": {"city": "Cambridge", "geolat": 42.35993659365884, "name": "Building 13", "zip": 2139, "geolong": -71.09256522010594, "tag_playable": true, "state": "MA", "crossstreet": "", "address": "Massachusetts Ave."}}, {"pk": 152, "model": "tag.Venue", "fields": {"city": "Cambridge", "geolat": 42.37150420432723, "name": "The Owl Club", "zip": 2138, "geolong": -71.11866847815705, "tag_playable": true, "state": "MA", "crossstreet": "", "address": "Holyoke St."}}, {"pk": 153, "model": "tag.Venue", "fields": {"city": "Cambridge", "geolat": 42.37353530209266, "name": "Widener Library", "zip": 2138, "geolong": -71.1164435857792, "tag_playable": true, "state": "MA", "crossstreet": "", "address": "Harvard Yard"}}, {"pk": 154, "model": "tag.Venue", "fields": {"city": "Cambridge", "geolat": 42.37245635150671, "name": "The Fox Club", "zip": 2138, "geolong": -71.12009004893494, "tag_playable": true, "state": "MA", "crossstreet": "", "address": "JFK Street"}}, {"pk": 155, "model": "tag.Venue", "fields": {"city": "Cambridge", "geolat": 42.37261735311503, "name": "The AD Club", "zip": 2138, "geolong": -71.11659043672276, "tag_playable": true, "state": "MA", "crossstreet": "", "address": "Plympton St."}}, {"pk": 156, "model": "tag.Venue", "fields": {"city": "Cambridge", "geolat": 42.36108611744506, "name": "Building 38", "zip": 2139, "geolong": -71.09238685332923, "tag_playable": true, "state": "MA", "crossstreet": "", "address": "Vassar Street"}}, {"pk": 157, "model": "tag.Venue", "fields": {"city": "Cambridge", "geolat": 42.37288733950111, "name": "The Porcellian Club", "zip": 2138, "geolong": -71.11774579825592, "tag_playable": true, "state": "MA", "crossstreet": "", "address": "Massachusetts Ave"}}, {"pk": 158, "model": "tag.Venue", "fields": {"city": "Allston", "geolat": 42.368398974732465, "name": "Bright Hockey Center", "zip": 2134, "geolong": -71.12724350037766, "tag_playable": true, "state": "MA", "crossstreet": "", "address": "North Harvard St."}}, {"pk": 159, "model": "tag.Venue", "fields": {"city": "Cambridge", "geolat": 42.37499765181267, "name": "Hollis", "zip": 2138, "geolong": -71.11784705164624, "tag_playable": true, "state": "MA", "crossstreet": "", "address": "Harvard Yard"}}, {"pk": 160, "model": "tag.Venue", "fields": {"city": "Cambridge", "geolat": 42.359534255324526, "name": "Building 11", "zip": 2139, "geolong": -71.09277979682713, "tag_playable": true, "state": "MA", "crossstreet": "", "address": "Massachusetts Ave."}}, {"pk": 161, "model": "tag.Venue", "fields": {"city": "Cambridge", "geolat": 42.356910074323714, "name": "Green House", "zip": 2139, "geolong": -71.09509186091611, "tag_playable": true, "state": "MA", "crossstreet": "", "address": "Memorial Drive"}}, {"pk": 162, "model": "tag.Venue", "fields": {"city": "Somerville", "geolat": 42.395695758538636, "name": "Diesel test", "zip": 2139, "geolong": -71.12196759524534, "tag_playable": true, "state": "MA", "crossstreet": "", "address": "257 Elm St."}}, {"pk": 163, "model": "tag.Venue", "fields": {"city": "Cambridge", "geolat": 42.3720382407871, "name": "The Spee Club", "zip": 2138, "geolong": -71.11892060580445, "tag_playable": true, "state": "MA", "crossstreet": "", "address": "Mt Auburn St."}}, {"pk": 164, "model": "tag.Venue", "fields": {"city": "Allston", "geolat": 42.36662137472792, "name": "Harvard Stadium", "zip": 2134, "geolong": -71.1268009358902, "tag_playable": true, "state": "MA", "crossstreet": "", "address": "North Harvard St."}}, {"pk": 165, "model": "tag.Venue", "fields": {"city": "Cambridge", "geolat": 42.3719688856594, "name": "The Crimson", "zip": 2138, "geolong": -71.11636781337452, "tag_playable": true, "state": "MA", "crossstreet": "", "address": "Plympton St."}}, {"pk": 166, "model": "tag.Venue", "fields": {"city": "Cambridge", "geolat": 42.381713521232854, "name": "Currier House", "zip": 2138, "geolong": -71.12575018050862, "tag_playable": true, "state": "MA", "crossstreet": "", "address": "Garden St."}}, {"pk": 167, "model": "tag.Venue", "fields": {"city": "Cambridge", "geolat": 42.37045494321583, "name": "DeWolfe 10", "zip": 2138, "geolong": -71.11623370292378, "tag_playable": true, "state": "MA", "crossstreet": "", "address": "10 DeWolfe St."}}, {"pk": 168, "model": "tag.Venue", "fields": {"city": "Cambridge", "geolat": 42.371830175173876, "name": "The Signet", "zip": 2138, "geolong": -71.11853503825856, "tag_playable": true, "state": "MA", "crossstreet": "", "address": "Mt Auburn St."}}, {"pk": 169, "model": "tag.Venue", "fields": {"city": "Cambridge", "geolat": 42.37563865752087, "name": "Phillips Brooks House", "zip": 2138, "geolong": -71.11790941300583, "tag_playable": true, "state": "MA", "crossstreet": "", "address": "Harvard Yard"}}, {"pk": 170, "model": "tag.Venue", "fields": {"city": "Cambridge", "geolat": 42.356930885676626, "name": "Du Pont Tennis Courts", "zip": 2139, "geolong": -71.09663681351333, "tag_playable": true, "state": "MA", "crossstreet": "", "address": "Memorial Drive"}}, {"pk": 171, "model": "tag.Venue", "fields": {"city": "Cambridge", "geolat": 42.35947677821362, "name": "Rotch Library", "zip": 2139, "geolong": -71.09317944597035, "tag_playable": true, "state": "MA", "crossstreet": "", "address": "Massachusetts Ave."}}, {"pk": 172, "model": "tag.Venue", "fields": {"city": "Cambridge", "geolat": 42.358678039127284, "name": "Zesiger Sports and Fitness Center", "zip": 2139, "geolong": -71.09569804015348, "tag_playable": true, "state": "MA", "crossstreet": "", "address": "Vassar Street"}}, {"pk": 173, "model": "tag.Venue", "fields": {"city": "Cambridge", "geolat": 42.37179202973663, "name": "The Phoenix Club", "zip": 2138, "geolong": -71.11833253147793, "tag_playable": true, "state": "MA", "crossstreet": "", "address": "Mt Auburn St."}}, {"pk": 174, "model": "tag.Venue", "fields": {"city": "Cambridge", "geolat": 42.36070360582011, "name": "Building 56", "zip": 2139, "geolong": -71.08984546012391, "tag_playable": true, "state": "MA", "crossstreet": "", "address": "Vassar Street"}}, {"pk": 175, "model": "tag.Venue", "fields": {"city": "Cambridge", "geolat": 42.37174694873561, "name": "Adams House", "zip": 2138, "geolong": -71.11669504287434, "tag_playable": true, "state": "MA", "crossstreet": "", "address": "Bow Street"}}, {"pk": 176, "model": "tag.Venue", "fields": {"city": "Cambridge", "geolat": 42.372148218047485, "name": "Hurlbut", "zip": 2138, "geolong": -71.11401886882973, "tag_playable": true, "state": "MA", "crossstreet": "", "address": "Harvard Yard"}}, {"pk": 177, "model": "tag.Venue", "fields": {"city": "Allston", "geolat": 42.36752702560876, "name": "Murr Center", "zip": 2134, "geolong": -71.12584875168992, "tag_playable": true, "state": "MA", "crossstreet": "", "address": "North Harvard St."}}, {"pk": 178, "model": "tag.Venue", "fields": {"city": "Cambridge", "geolat": 42.35871569702952, "name": "Building 5", "zip": 2139, "geolong": -71.09292195390492, "tag_playable": true, "state": "MA", "crossstreet": "", "address": "Massachusetts Ave."}}, {"pk": 179, "model": "tag.Venue", "fields": {"city": "Cambridge", "geolat": 42.360376586263165, "name": "Building 31", "zip": 2139, "geolong": -71.09307483973691, "tag_playable": true, "state": "MA", "crossstreet": "", "address": "Vassar Street"}}, {"pk": 180, "model": "tag.Venue", "fields": {"city": "Cambridge", "geolat": 42.37235727338884, "name": "UHS", "zip": 2138, "geolong": -71.1188300812502, "tag_playable": true, "state": "MA", "crossstreet": "", "address": "Mt Auburn St."}}, {"pk": 181, "model": "tag.Venue", "fields": {"city": "Cambridge", "geolat": 42.37524137345559, "name": "Holden Chapel", "zip": 2138, "geolong": -71.11810387315941, "tag_playable": true, "state": "MA", "crossstreet": "", "address": "Harvard Yard"}}, {"pk": 182, "model": "tag.Venue", "fields": {"city": "Cambridge", "geolat": 42.38004824279993, "name": "The Berkman Center", "zip": 2138, "geolong": -71.11757681908799, "tag_playable": true, "state": "MA", "crossstreet": "", "address": "Everett St."}}, {"pk": 183, "model": "tag.Venue", "fields": {"city": "Cambridge", "geolat": 42.37585760851262, "name": "Sanders Theater", "zip": 2138, "geolong": -71.11468942108345, "tag_playable": true, "state": "MA", "crossstreet": "", "address": "Harvard Yard"}}, {"pk": 184, "model": "tag.Venue", "fields": {"city": "Cambridge", "geolat": 42.36016650007424, "name": "Building 33", "zip": 2139, "geolong": -71.09378294291685, "tag_playable": true, "state": "MA", "crossstreet": "", "address": "Massachusetts Ave."}}, {"pk": 185, "model": "tag.Venue", "fields": {"city": "Cambridge", "geolat": 42.37506006842108, "name": "CGIS", "zip": 2138, "geolong": -71.11313306930256, "tag_playable": true, "state": "MA", "crossstreet": "", "address": "Cambridge St."}}, {"pk": 186, "model": "tag.Venue", "fields": {"city": "Cambridge", "geolat": 42.37262874705934, "name": "The Holyoke Center", "zip": 2138, "geolong": -71.11865976097775, "tag_playable": true, "state": "MA", "crossstreet": "", "address": "Massachusetts Ave"}}, {"pk": 187, "model": "tag.Venue", "fields": {"city": "Cambirdge", "geolat": 42.370958273679534, "name": "New Quincy", "zip": 2138, "geolong": -71.11643218639088, "tag_playable": true, "state": "MA", "crossstreet": "", "address": "Plympton St."}}, {"pk": 188, "model": "tag.Venue", "fields": {"city": "Cambridge", "geolat": 42.37027560599328, "name": "Winthrop House (Standish)", "zip": 2138, "geolong": -71.11981109919739, "tag_playable": true, "state": "MA", "crossstreet": "", "address": "Mill St."}}, {"pk": 189, "model": "tag.Venue", "fields": {"city": "Allston", "geolat": 42.369025185271965, "name": "Palmer Dixon Courts", "zip": 2134, "geolong": -71.12679288926316, "tag_playable": true, "state": "MA", "crossstreet": "", "address": "North Harvard St."}}, {"pk": 190, "model": "tag.Venue", "fields": {"city": "Cambridge", "geolat": 42.37390584650272, "name": "Weld", "zip": 2138, "geolong": -71.11709133925629, "tag_playable": true, "state": "MA", "crossstreet": "", "address": "Harvard Yard"}}, {"pk": 191, "model": "tag.Venue", "fields": {"city": "Cambridge", "geolat": 42.37208480775892, "name": "Pennypacker", "zip": 2138, "geolong": -71.11357630434227, "tag_playable": true, "state": "MA", "crossstreet": "", "address": "Harvard Yard"}}, {"pk": 192, "model": "tag.Venue", "fields": {"city": "Cambridge", "geolat": 42.35955110199364, "name": "Du Pont Athletic Center", "zip": 2139, "geolong": -71.09514550530105, "tag_playable": true, "state": "MA", "crossstreet": "", "address": "Massachusetts Ave."}}, {"pk": 193, "model": "tag.Venue", "fields": {"city": "Cambridge", "geolat": 42.361050442944595, "name": "MIT Medical", "zip": 2139, "geolong": -71.08662144480616, "tag_playable": true, "state": "MA", "crossstreet": "", "address": "Carleton Street"}}, {"pk": 194, "model": "tag.Venue", "fields": {"city": "Cambridge", "geolat": 42.374377445317336, "name": "University Hall", "zip": 2138, "geolong": -71.11710206809235, "tag_playable": true, "state": "MA", "crossstreet": "", "address": "Harvard Yard"}}, {"pk": 195, "model": "tag.Venue", "fields": {"city": "Cambridge", "geolat": 42.358951553903026, "name": "Building 3", "zip": 2139, "geolong": -71.0924311096552, "tag_playable": true, "state": "MA", "crossstreet": "", "address": "Massachusetts Ave."}}, {"pk": 196, "model": "tag.Venue", "fields": {"city": "Cambridge", "geolat": 42.375952718207806, "name": "Annenberg", "zip": 2138, "geolong": -71.11525000276757, "tag_playable": true, "state": "MA", "crossstreet": "", "address": "Harvard Yard"}}, {"pk": 197, "model": "tag.Venue", "fields": {"city": "Allston", "geolat": 42.367889183219624, "name": "Blodgett Pool", "zip": 2134, "geolong": -71.12472825887394, "tag_playable": true, "state": "MA", "crossstreet": "", "address": "North Harvard St."}}, {"pk": 198, "model": "tag.Venue", "fields": {"city": "Cambridge", "geolat": 42.35533828806273, "name": "MacGregor House", "zip": 2139, "geolong": -71.09943435731122, "tag_playable": true, "state": "MA", "crossstreet": "", "address": "Memorial Drive"}}, {"pk": 199, "model": "tag.Venue", "fields": {"city": "Cambridge", "geolat": 42.371586440293164, "name": "The Lampoon", "zip": 2138, "geolong": -71.11723953130436, "tag_playable": true, "state": "MA", "crossstreet": "", "address": "Mt Auburn St."}}, {"pk": 200, "model": "tag.Venue", "fields": {"city": "Cambridge", "geolat": 42.37430412976776, "name": "Sever Hall", "zip": 2138, "geolong": -71.11541361751748, "tag_playable": true, "state": "MA", "crossstreet": "", "address": "Harvard Yard"}}, {"pk": 201, "model": "tag.Venue", "fields": {"city": "Cambridge", "geolat": 42.371352612445435, "name": "The MAC", "zip": 2138, "geolong": -71.11939602735234, "tag_playable": true, "state": "MA", "crossstreet": "", "address": "Holyoke St."}}, {"pk": 202, "model": "tag.Venue", "fields": {"city": "Cambridge", "geolat": 42.36992386575516, "name": "Leverett McKinlock", "zip": 2138, "geolong": -71.1174621546526, "tag_playable": true, "state": "MA", "crossstreet": "", "address": "Mill St."}}, {"pk": 203, "model": "tag.Venue", "fields": {"city": "Cambridge", "geolat": 42.37088495413854, "name": "Lowell House", "zip": 2138, "geolong": -71.11839288118077, "tag_playable": true, "state": "MA", "crossstreet": "", "address": "Winthrop St."}}, {"pk": 204, "model": "tag.Venue", "fields": {"city": "Cambridge", "geolat": 42.372978490606265, "name": "Wigglesworth", "zip": 2138, "geolong": -71.1168056839962, "tag_playable": true, "state": "MA", "crossstreet": "", "address": "Harvard Yard"}}, {"pk": 205, "model": "tag.Venue", "fields": {"city": "Cambridge", "geolat": 42.37538602081272, "name": "Stoughton", "zip": 2138, "geolong": -71.11770891788197, "tag_playable": true, "state": "MA", "crossstreet": "", "address": "Harvard Yard"}}, {"pk": 206, "model": "tag.Venue", "fields": {"city": "Cambridge", "geolat": 42.35519854980494, "name": "New House", "zip": 2139, "geolong": -71.10053138079832, "tag_playable": true, "state": "MA", "crossstreet": "", "address": "Memorial Drive"}}, {"pk": 207, "model": "tag.Venue", "fields": {"city": "Cambridge", "geolat": 42.359672992992, "name": "Building 10", "zip": 2139, "geolong": -71.09202341388493, "tag_playable": true, "state": "MA", "crossstreet": "", "address": "Massachusetts Ave."}}, {"pk": 208, "model": "tag.Venue", "fields": {"city": "Cambridge", "geolat": 42.35612914129703, "name": "Kappa Sigma", "zip": 2139, "geolong": -71.09738246741483, "tag_playable": true, "state": "MA", "crossstreet": "", "address": "Memorial Drive"}}, {"pk": 209, "model": "tag.Venue", "fields": {"city": "Cambridge", "geolat": 42.37152996500281, "name": "The Fly Club", "zip": 2138, "geolong": -71.11779676022721, "tag_playable": true, "state": "MA", "crossstreet": "", "address": "Holyoke Pl"}}, {"pk": 210, "model": "tag.Venue", "fields": {"city": "Cambridge", "geolat": 42.35761171653292, "name": "Maseeh Hall", "zip": 2139, "geolong": -71.09340743365476, "tag_playable": true, "state": "MA", "crossstreet": "", "address": "Memorial Drive"}}, {"pk": 211, "model": "tag.Venue", "fields": {"city": "Cambridge", "geolat": 42.3788917895427, "name": "Rhinos", "zip": 2138, "geolong": -71.11361921968648, "tag_playable": true, "state": "MA", "crossstreet": "", "address": ""}}, {"pk": 212, "model": "tag.Venue", "fields": {"city": "Cambridge", "geolat": 42.370575822159765, "name": "Old Quincy", "zip": 2138, "geolong": -71.11737364175511, "tag_playable": true, "state": "MA", "crossstreet": "", "address": "Plympton St."}}, {"pk": 213, "model": "tag.Venue", "fields": {"city": "Cambridge", "geolat": 42.373323278371984, "name": "Wadsworth House", "zip": 2138, "geolong": -71.11808912100983, "tag_playable": true, "state": "MA", "crossstreet": "", "address": "Harvard Yard"}}, {"pk": 214, "model": "tag.Venue", "fields": {"city": "Cambridge", "geolat": 42.35852344329286, "name": "Bexley Hall", "zip": 2139, "geolong": -71.09368638341277, "tag_playable": true, "state": "MA", "crossstreet": "", "address": "Massachusetts Ave."}}, {"pk": 215, "model": "tag.Venue", "fields": {"city": "Cambridge", "geolat": 42.373606637015456, "name": "Carpenter Center", "zip": 2138, "geolong": -71.11426026764107, "tag_playable": true, "state": "MA", "crossstreet": "", "address": "Harvard Yard"}}, {"pk": 216, "model": "tag.Venue", "fields": {"city": "Cambridge", "geolat": 42.36163114299995, "name": "Building 68", "zip": 2139, "geolong": -71.08861969052225, "tag_playable": true, "state": "MA", "crossstreet": "", "address": "Ames Street"}}, {"pk": 217, "model": "tag.Venue", "fields": {"city": "Cambridge", "geolat": 42.35594282589236, "name": "Burton Conner House", "zip": 2139, "geolong": -71.09818176570127, "tag_playable": true, "state": "MA", "crossstreet": "", "address": "Memorial Drive"}}, {"pk": 218, "model": "tag.Venue", "fields": {"city": "Cambridge", "geolat": 42.35885740946117, "name": "Student Center", "zip": 2139, "geolong": -71.09473780932615, "tag_playable": true, "state": "MA", "crossstreet": "", "address": "Massachusetts Ave"}}, {"pk": 219, "model": "tag.Venue", "fields": {"city": "Cambridge", "geolat": 42.373616544637045, "name": "Grays", "zip": 2138, "geolong": -71.11782894673539, "tag_playable": true, "state": "MA", "crossstreet": "", "address": "Harvard Yard"}}, {"pk": 220, "model": "tag.Venue", "fields": {"city": "Cambridge", "geolat": 42.358081455667744, "name": "Building 1", "zip": 2139, "geolong": -71.09242574523716, "tag_playable": true, "state": "MA", "crossstreet": "", "address": "Massachusetts Ave."}}, {"pk": 221, "model": "tag.Venue", "fields": {"city": "Cambridge", "geolat": 42.36033496547026, "name": "Green Building", "zip": 2139, "geolong": -71.0893251115341, "tag_playable": true, "state": "MA", "crossstreet": "", "address": "Ames Street"}}, {"pk": 222, "model": "tag.Venue", "fields": {"city": "Cambridge", "geolat": 42.35834308100504, "name": "MIT Chapel", "zip": 2139, "geolong": -71.09409407916257, "tag_playable": true, "state": "MA", "crossstreet": "", "address": "Amherst Street"}}, {"pk": 223, "model": "tag.Venue", "fields": {"city": "Cambridge", "geolat": 42.370950347246804, "name": "Kirkland House", "zip": 2138, "geolong": -71.120777364995, "tag_playable": true, "state": "MA", "crossstreet": "", "address": "Dunster St."}}, {"pk": 224, "model": "tag.Venue", "fields": {"city": "Cambridge", "geolat": 42.36003767329025, "name": "Senior House", "zip": 2139, "geolong": -71.08681724610517, "tag_playable": true, "state": "MA", "crossstreet": "", "address": "Amherst Street"}}, {"pk": 225, "model": "tag.Venue", "fields": {"city": "Cambridge", "geolat": 42.37511753127557, "name": "Sackler Museum", "zip": 2138, "geolong": -71.11409061792088, "tag_playable": true, "state": "MA", "crossstreet": "", "address": "Quincy St."}}, {"pk": 226, "model": "tag.Venue", "fields": {"city": "Cambridge", "geolat": 42.375510853195536, "name": "Holoworthy", "zip": 2138, "geolong": -71.1172636711855, "tag_playable": true, "state": "MA", "crossstreet": "", "address": "Harvard Yard"}}, {"pk": 227, "model": "tag.Venue", "fields": {"city": "Cambridge", "geolat": 42.37329751843211, "name": "Pusey Library", "zip": 2138, "geolong": -71.11562081816388, "tag_playable": true, "state": "MA", "crossstreet": "", "address": "Harvard Yard"}}, {"pk": 228, "model": "tag.Venue", "fields": {"city": "Cambridge", "geolat": 42.3588841663152, "name": "Killian Court", "zip": 2139, "geolong": -71.09149501862714, "tag_playable": true, "state": "MA", "crossstreet": "", "address": "Memorial Drive"}}, {"pk": 229, "model": "tag.Venue", "fields": {"city": "Cambridge", "geolat": 42.37008834171737, "name": "DeWolfe 20", "zip": 2138, "geolong": -71.11642413976384, "tag_playable": true, "state": "MA", "crossstreet": "", "address": "20 DeWolfe St."}}, {"pk": 230, "model": "tag.Venue", "fields": {"city": "Cambridge", "geolat": 42.37203031449072, "name": "Claverly Hall", "zip": 2138, "geolong": -71.1176955068369, "tag_playable": true, "state": "MA", "crossstreet": "", "address": "Bow Street"}}, {"pk": 231, "model": "tag.Venue", "fields": {"city": "Cambridge", "geolat": 42.368415819085094, "name": "Mather House", "zip": 2138, "geolong": -71.11523323896122, "tag_playable": true, "state": "MA", "crossstreet": "", "address": "Cowperthwaite St."}}, {"pk": 232, "model": "tag.Venue", "fields": {"city": "Cambridge", "geolat": 42.37258019893467, "name": "Barker Center", "zip": 2138, "geolong": -71.11454726400567, "tag_playable": true, "state": "MA", "crossstreet": "", "address": "Harvard Yard"}}, {"pk": 233, "model": "tag.Venue", "fields": {"city": "Cambridge", "geolat": 42.375035299933174, "name": "Thayer", "zip": 2138, "geolong": -71.1167158299942, "tag_playable": true, "state": "MA", "crossstreet": "", "address": "Harvard Yard"}}, {"pk": 234, "model": "tag.Venue", "fields": {"city": "Cambridge", "geolat": 42.37448048324242, "name": "John Harvard Statue", "zip": 2138, "geolong": -71.11722813191605, "tag_playable": true, "state": "MA", "crossstreet": "", "address": "Harvard Yard"}}, {"pk": 235, "model": "tag.Venue", "fields": {"city": "Cambridge", "geolat": 42.37415452615071, "name": "Fogg Art Museum", "zip": 2138, "geolong": -71.11413152160836, "tag_playable": true, "state": "MA", "crossstreet": "", "address": "Quincy St."}}, {"pk": 236, "model": "tag.Venue", "fields": {"city": "Cambridge", "geolat": 42.371552753284035, "name": "The Advocate", "zip": 2138, "geolong": -71.12045549991322, "tag_playable": true, "state": "MA", "crossstreet": "", "address": "South St."}}, {"pk": 237, "model": "tag.Venue", "fields": {"city": "Cambridge", "geolat": 42.372790243613565, "name": "Lamont Library", "zip": 2138, "geolong": -71.11548871936989, "tag_playable": true, "state": "MA", "crossstreet": "", "address": "Harvard Yard"}}, {"pk": 238, "model": "tag.Venue", "fields": {"city": "Cambridge", "geolat": 42.372403344733065, "name": "The Deliphic Club", "zip": 2138, "geolong": -71.11750372889233, "tag_playable": true, "state": "MA", "crossstreet": "", "address": "Linden St."}}, {"pk": 239, "model": "tag.Venue", "fields": {"city": "Cambridge", "geolat": 42.356680155963446, "name": "Baker House", "zip": 2139, "geolong": -71.09575168433378, "tag_playable": true, "state": "MA", "crossstreet": "", "address": "Memorial Drive"}}, {"pk": 240, "model": "tag.Venue", "fields": {"city": "Cambridge", "geolat": 42.35644726348207, "name": "Briggs Field", "zip": 2139, "geolong": -71.10033826195388, "tag_playable": true, "state": "MA", "crossstreet": "", "address": "Vassar Street"}}, {"pk": 241, "model": "tag.Venue", "fields": {"city": "Cambridge", "geolat": 42.3810161107742, "name": "Hilles", "zip": 2138, "geolong": -71.12519764545155, "tag_playable": true, "state": "MA", "crossstreet": "", "address": "Garden St."}}, {"pk": 242, "model": "tag.Venue", "fields": {"city": "Cambridge", "geolat": 42.3601288430416, "name": "Building 17", "zip": 2139, "geolong": -71.09350667538831, "tag_playable": true, "state": "MA", "crossstreet": "", "address": "Massachusetts Ave."}}, {"pk": 243, "model": "tag.Venue", "fields": {"city": "Allston", "geolat": 42.369700435369204, "name": "Newell Boat House", "zip": 2134, "geolong": -71.12573140504551, "tag_playable": true, "state": "MA", "crossstreet": "", "address": "Soldiers Field Road"}}, {"pk": 244, "model": "tag.Venue", "fields": {"city": "Cambridge", "geolat": 42.372023874374094, "name": "Office of Career Services", "zip": 2138, "geolong": -71.11930617335034, "tag_playable": true, "state": "MA", "crossstreet": "", "address": "Dunster St."}}, {"pk": 245, "model": "tag.Venue", "fields": {"city": "Cambridge", "geolat": 42.35931722940853, "name": "Walker Memorial", "zip": 2139, "geolong": -71.08827368560026, "tag_playable": true, "state": "MA", "crossstreet": "", "address": "Memorial Drive"}}, {"pk": 246, "model": "tag.Venue", "fields": {"city": "Cambridge", "geolat": 42.37290121033026, "name": "Greenough", "zip": 2138, "geolong": -71.11380965652657, "tag_playable": true, "state": "MA", "crossstreet": "", "address": "10 & 12 Prescott St."}}, {"pk": 247, "model": "tag.Venue", "fields": {"city": "Cambridge", "geolat": 42.361464662926366, "name": "Building 36", "zip": 2139, "geolong": -71.09170691334396, "tag_playable": true, "state": "MA", "crossstreet": "", "address": "Vassar Street"}}, {"pk": 248, "model": "tag.Venue", "fields": {"city": "Cambridge", "geolat": 42.37361258158854, "name": "Dudley House", "zip": 2138, "geolong": -71.11852095666123, "tag_playable": true, "state": "MA", "crossstreet": "", "address": "Harvard Yard"}}, {"pk": 249, "model": "tag.Venue", "fields": {"city": "Cambridge", "geolat": 42.35638284649178, "name": "Theta Delta Chi", "zip": 2139, "geolong": -71.09648124518583, "tag_playable": true, "state": "MA", "crossstreet": "", "address": "Memorial Drive"}}, {"pk": 250, "model": "tag.Venue", "fields": {"city": "Cambridge", "geolat": 42.381372742090164, "name": "Jordan Hall", "zip": 2138, "geolong": -71.12292849662495, "tag_playable": true, "state": "MA", "crossstreet": "", "address": "Walker St."}}, {"pk": 251, "model": "tag.Venue", "fields": {"city": "Cambridge", "geolat": 42.37546527949726, "name": "Mower", "zip": 2138, "geolong": -71.11823328974438, "tag_playable": true, "state": "MA", "crossstreet": "", "address": "Harvard Yard"}}, {"pk": 252, "model": "tag.Venue", "fields": {"city": "Cambridge", "geolat": 42.3547307712403, "name": "Next House", "zip": 2139, "geolong": -71.10190467181394, "tag_playable": true, "state": "MA", "crossstreet": "", "address": "Memorial Drive"}}, {"pk": 253, "model": "tag.Venue", "fields": {"city": "Cambridge", "geolat": 42.36235255129312, "name": "Building 76", "zip": 2139, "geolong": -71.08950481953809, "tag_playable": true, "state": "MA", "crossstreet": "", "address": "Vassar Street"}}, {"pk": 254, "model": "tag.Venue", "fields": {"city": "Cambridge", "geolat": 42.372343402439895, "name": "Apley Court", "zip": 2138, "geolong": -71.11813538911534, "tag_playable": true, "state": "MA", "crossstreet": "", "address": "Holyoke St."}}, {"pk": 255, "model": "tag.Venue", "fields": {"city": "Cambridge", "geolat": 42.376674952755444, "name": "Lowell Lecture Hall", "zip": 2138, "geolong": -71.11544781568242, "tag_playable": true, "state": "MA", "crossstreet": "", "address": "Oxford St."}}, {"pk": 256, "model": "tag.Venue", "fields": {"city": "Cambridge", "geolat": 42.35832127893532, "name": "Kresge Oval", "zip": 2139, "geolong": -71.09453396146148, "tag_playable": true, "state": "MA", "crossstreet": "", "address": "Amherst Street"}}, {"pk": 257, "model": "tag.Venue", "fields": {"city": "Cambridge", "geolat": 42.37672746056762, "name": "Paine Hall", "zip": 2138, "geolong": -71.11735687794877, "tag_playable": true, "state": "MA", "crossstreet": "", "address": "Harvard Yard"}}, {"pk": 258, "model": "tag.Venue", "fields": {"city": "Cambridge", "geolat": 42.358131006004655, "name": "Kresge Auditorium", "zip": 2139, "geolong": -71.09507040326446, "tag_playable": true, "state": "MA", "crossstreet": "", "address": "Amherst Street"}}, {"pk": 259, "model": "tag.Venue", "fields": {"city": "Cambridge", "geolat": 42.381474777899385, "name": "Cabot House", "zip": 2138, "geolong": -71.12425283732605, "tag_playable": true, "state": "MA", "crossstreet": "", "address": "Walker St."}}, {"pk": 260, "model": "tag.Venue", "fields": {"city": "Cambridge", "geolat": 42.35966011013382, "name": "The Great Dome", "zip": 2139, "geolong": -71.09201268517165, "tag_playable": true, "state": "MA", "crossstreet": "", "address": "Massachusetts Ave."}}, {"pk": 261, "model": "tag.Venue", "fields": {"city": "Cambridge", "geolat": 42.3604707284337, "name": "MIT Media Lab", "zip": 2139, "geolong": -71.08735100569913, "tag_playable": true, "state": "MA", "crossstreet": "", "address": "Ames St."}}, {"pk": 262, "model": "tag.Venue", "fields": {"city": "Cambridge", "geolat": 42.37712077240411, "name": "William James Hall", "zip": 2138, "geolong": -71.11344755830956, "tag_playable": true, "state": "MA", "crossstreet": "", "address": "Kirkland St."}}]